{
  "links" : {
    "next" : "https://api.nasa.gov/neo/rest/v1/feed?start_date=2015-03-09&end_date=2015-03-09&detailed=true&api_key=t0TVs3DtDT2H8Oy2Zy8m2eVrNsAVKAexjcZXUckd",
    "prev" : "https://api.nasa.gov/neo/rest/v1/feed?start_date=2015-03-07&end_date=2015-03-07&detailed=true&api_key=t0TVs3DtDT2H8Oy2Zy8m2eVrNsAVKAexjcZXUckd",
    "self" : "https://api.nasa.gov/neo/rest/v1/feed?start_date=2015-03-08&end_date=2015-03-08&detailed=true&api_key=t0TVs3DtDT2H8Oy2Zy8m2eVrNsAVKAexjcZXUckd"
  },
  "element_count" : 7,
  "near_earth_objects" : {
    "2015-03-08" : [ {
      "links" : {
        "self" : "https://api.nasa.gov/neo/rest/v1/neo/3713008?api_key=t0TVs3DtDT2H8Oy2Zy8m2eVrNsAVKAexjcZXUckd"
      },
      "neo_reference_id" : "3713008",
      "name" : "(2015 EX)",
      "nasa_jpl_url" : "http://ssd.jpl.nasa.gov/sbdb.cgi?sstr=3713008",
      "absolute_magnitude_h" : 25.8,
      "estimated_diameter" : {
        "kilometers" : {
          "estimated_diameter_min" : 0.0183888672,
          "estimated_diameter_max" : 0.0411187571
        },
        "meters" : {
          "estimated_diameter_min" : 18.388867207,
          "estimated_diameter_max" : 41.1187571041
        },
        "miles" : {
          "estimated_diameter_min" : 0.0114263088,
          "estimated_diameter_max" : 0.0255500032
        },
        "feet" : {
          "estimated_diameter_min" : 60.3309310875,
          "estimated_diameter_max" : 134.9040630575
        }
      },
      "is_potentially_hazardous_asteroid" : false,
      "close_approach_data" : [ {
        "close_approach_date" : "2015-03-08",
        "epoch_date_close_approach" : 1425801600000,
        "relative_velocity" : {
          "kilometers_per_second" : "10.6104166555",
          "kilometers_per_hour" : "38197.4999597366",
          "miles_per_hour" : "23734.4410166486"
        },
        "miss_distance" : {
          "astronomical" : "0.0036966898",
          "lunar" : "1.4380123615",
          "kilometers" : "553016.9375",
          "miles" : "343628.78125"
        },
        "orbiting_body" : "Earth"
      } ],
      "orbital_data" : {
        "orbit_id" : "6",
        "orbit_determination_date" : "2017-04-06 08:35:10",
        "orbit_uncertainty" : "7",
        "minimum_orbit_intersection" : ".00450357",
        "jupiter_tisserand_invariant" : "4.070",
        "epoch_osculation" : "2458000.5",
        "eccentricity" : ".4749681178450734",
        "semi_major_axis" : "1.692496516854046",
        "inclination" : "7.294208401811106",
        "ascending_node_longitude" : "349.0871097289421",
        "orbital_period" : "804.248208649029",
        "perihelion_distance" : ".8886146317845371",
        "perihelion_argument" : "130.504055473401",
        "aphelion_distance" : "2.496378401923554",
        "perihelion_time" : "2457858.200888522763",
        "mean_anomaly" : "63.69635590218751",
        "mean_motion" : ".4476230050977989",
        "equinox" : "J2000"
      }
    }, {
      "links" : {
        "self" : "https://api.nasa.gov/neo/rest/v1/neo/3076622?api_key=t0TVs3DtDT2H8Oy2Zy8m2eVrNsAVKAexjcZXUckd"
      },
      "neo_reference_id" : "3076622",
      "name" : "(2001 DG47)",
      "nasa_jpl_url" : "http://ssd.jpl.nasa.gov/sbdb.cgi?sstr=3076622",
      "absolute_magnitude_h" : 23.0,
      "estimated_diameter" : {
        "kilometers" : {
          "estimated_diameter_min" : 0.0667659413,
          "estimated_diameter_max" : 0.1492931834
        },
        "meters" : {
          "estimated_diameter_min" : 66.7659413495,
          "estimated_diameter_max" : 149.2931834393
        },
        "miles" : {
          "estimated_diameter_min" : 0.0414864197,
          "estimated_diameter_max" : 0.0927664547
        },
        "feet" : {
          "estimated_diameter_min" : 219.0483710172,
          "estimated_diameter_max" : 489.807047955
        }
      },
      "is_potentially_hazardous_asteroid" : false,
      "close_approach_data" : [ {
        "close_approach_date" : "2015-03-08",
        "epoch_date_close_approach" : 1425801600000,
        "relative_velocity" : {
          "kilometers_per_second" : "8.6066274331",
          "kilometers_per_hour" : "30983.8587590424",
          "miles_per_hour" : "19252.1649050283"
        },
        "miss_distance" : {
          "astronomical" : "0.4946375911",
          "lunar" : "192.4140167236",
          "kilometers" : "73996728",
          "miles" : "45979436"
        },
        "orbiting_body" : "Earth"
      } ],
      "orbital_data" : {
        "orbit_id" : "14",
        "orbit_determination_date" : "2017-04-06 09:16:31",
        "orbit_uncertainty" : "5",
        "minimum_orbit_intersection" : ".0986353",
        "jupiter_tisserand_invariant" : "4.551",
        "epoch_osculation" : "2458000.5",
        "eccentricity" : ".32767329991336",
        "semi_major_axis" : "1.446329672681186",
        "inclination" : "16.84566140751427",
        "ascending_node_longitude" : "151.8312923646332",
        "orbital_period" : "635.3300119655448",
        "perihelion_distance" : ".9724060560711317",
        "perihelion_argument" : "299.1027200966406",
        "aphelion_distance" : "1.92025328929124",
        "perihelion_time" : "2458260.982931904341",
        "mean_anomaly" : "212.4013446248967",
        "mean_motion" : ".5666346516297164",
        "equinox" : "J2000"
      }
    }, {
      "links" : {
        "self" : "https://api.nasa.gov/neo/rest/v1/neo/3512278?api_key=t0TVs3DtDT2H8Oy2Zy8m2eVrNsAVKAexjcZXUckd"
      },
      "neo_reference_id" : "3512278",
      "name" : "(2010 FN)",
      "nasa_jpl_url" : "http://ssd.jpl.nasa.gov/sbdb.cgi?sstr=3512278",
      "absolute_magnitude_h" : 26.6,
      "estimated_diameter" : {
        "kilometers" : {
          "estimated_diameter_min" : 0.0127219879,
          "estimated_diameter_max" : 0.0284472297
        },
        "meters" : {
          "estimated_diameter_min" : 12.7219878539,
          "estimated_diameter_max" : 28.4472296503
        },
        "miles" : {
          "estimated_diameter_min" : 0.0079050743,
          "estimated_diameter_max" : 0.0176762835
        },
        "feet" : {
          "estimated_diameter_min" : 41.7388066307,
          "estimated_diameter_max" : 93.330808926
        }
      },
      "is_potentially_hazardous_asteroid" : false,
      "close_approach_data" : [ {
        "close_approach_date" : "2015-03-08",
        "epoch_date_close_approach" : 1425801600000,
        "relative_velocity" : {
          "kilometers_per_second" : "19.8715213634",
          "kilometers_per_hour" : "71537.4769081417",
          "miles_per_hour" : "44450.6061377284"
        },
        "miss_distance" : {
          "astronomical" : "0.4281192323",
          "lunar" : "166.5383911133",
          "kilometers" : "64045728",
          "miles" : "39796172"
        },
        "orbiting_body" : "Earth"
      } ],
      "orbital_data" : {
        "orbit_id" : "10",
        "orbit_determination_date" : "2017-04-06 08:58:07",
        "orbit_uncertainty" : "6",
        "minimum_orbit_intersection" : ".000820582",
        "jupiter_tisserand_invariant" : "6.111",
        "epoch_osculation" : "2458000.5",
        "eccentricity" : ".2109963631558617",
        "semi_major_axis" : ".9895831986652721",
        "inclination" : ".123647362647108",
        "ascending_node_longitude" : "161.5533644639227",
        "orbital_period" : "359.564574137851",
        "perihelion_distance" : ".7807847427067551",
        "perihelion_argument" : "126.0635263061669",
        "aphelion_distance" : "1.198381654623789",
        "perihelion_time" : "2457879.860943156557",
        "mean_anomaly" : "120.785148447325",
        "mean_motion" : "1.001210980984968",
        "equinox" : "J2000"
      }
    } ]
  }
}